SNAP-3 JIMI             
1 40975U 15058M   26068.63164788  .00007303  00000+0  51665-3 0  9997
2 40975  64.7662 174.4840 0105534  96.5110 264.8035 15.01135599 99270
STARLINK-4083           
1 52832U 22062C   26068.30851398 -.00001627  00000+0 -84194-4 0  9998
2 52832  53.2185  35.8295 0001273  96.9279 263.1858 15.08832291205721
